NORAD_CAT_ID,OBJECT_NAME,OBJECT_TYPE,EPOCH,MEAN_MOTION,ECCENTRICITY,INCLINATION,RA_OF_ASC_NODE,ARG_OF_PERICENTER,MEAN_ANOMALY,BSTAR,MEAN_MOTION_DOT,MEAN_MOTION_DDOT,TLE_LINE0,TLE_LINE1,TLE_LINE2,SEMIMAJOR_AXIS,PERIOD,APOGEE,PERIGEE,DECAYED
50161.0,STARLINK-3304,PAYLOAD,2023-05-13 11:31:15,15.08845752,8.25e-05,53.2173,208.3964,113.4631,246.6448,0.00017446,2.49e-05,0.0,0 STARLINK-3304,1 50161U 21125F   23133.48004181  .00002490  00000-0  17446-3 0  9992,2 50161  53.2173 208.3964 0000825 113.4631 246.6448 15.08845752 80290,6917.863,95.437,540.299,539.157,0.0
50161.0,STARLINK-3304,PAYLOAD,2023-05-13 16:17:24,15.08859041,8.34e-05,53.2177,207.5028,113.8443,246.2637,9.9635e-05,1.299e-05,0.0,0 STARLINK-3304,1 50161U 21125F   23133.67875390  .00001299  00000-0  99635-4 0  9998,2 50161  53.2177 207.5028 0000834 113.8443 246.2637 15.08859041 80800,6917.822,95.436,540.264,539.11,0.0
50161.0,STARLINK-3304,PAYLOAD,2023-05-14 08:11:17,15.08833439,9.17e-05,53.2162,204.5309,95.3985,264.7112,-1.018e-05,-4.5e-06,0.0,0 STARLINK-3304,1 50161U 21125F   23134.34117229 -.00000450  00000-0 -10180-4 0  9991,2 50161  53.2162 204.5309 0000917  95.3985 264.7112 15.08833439 80424,6917.9,95.438,540.4,539.131,0.0
50161.0,STARLINK-3304,PAYLOAD,2023-05-14 09:46:40,15.08834658,9.8e-05,53.2163,204.2335,91.6573,268.4531,8.455e-06,-1.53e-06,0.0,0 STARLINK-3304,1 50161U 21125F   23134.40741209 -.00000153  00000-0  84550-5 0  9991,2 50161  53.2163 204.2335 0000980  91.6573 268.4531 15.08834658 80917,6917.897,95.438,540.44,539.084,0.0
50161.0,STARLINK-3304,PAYLOAD,2023-05-14 16:08:12,15.08837599,0.0001381,53.217,203.0409,124.1857,235.9266,2.4537e-05,1.03e-06,0.0,0 STARLINK-3304,1 50161U 21125F   23134.67236935  .00000103  00000-0  24537-4 0  9997,2 50161  53.2170 203.0409 0001381 124.1857 235.9266 15.08837599 80952,6917.888,95.438,540.708,538.797,0.0
50161.0,STARLINK-3304,PAYLOAD,2023-05-15 11:12:50,15.08840101,0.0001012,53.216,199.4799,92.1188,267.992,8.2515e-06,-1.56e-06,0.0,0 STARLINK-3304,1 50161U 21125F   23135.46725159 -.00000156  00000-0  82515-5 0  9996,2 50161  53.2160 199.4799 0001012  92.1188 267.9920 15.08840101 80598,6917.88,95.438,540.445,539.045,0.0
50161.0,STARLINK-3304,PAYLOAD,2023-05-15 20:45:09,15.08837352,9.79e-05,53.2157,197.6953,89.8224,270.2881,-8.1906e-06,-4.18e-06,0.0,0 STARLINK-3304,1 50161U 21125F   23135.86469366 -.00000418  00000-0 -81906-5 0  9990,2 50161  53.2157 197.6953 0000979  89.8224 270.2881 15.08837352 81139,6917.888,95.438,540.431,539.076,0.0
50161.0,STARLINK-3304,PAYLOAD,2023-05-15 23:55:56,15.08833168,0.0001014,53.2155,197.1005,79.5224,280.5882,0.00012266,1.665e-05,0.0,0 STARLINK-3304,1 50161U 21125F   23135.99717640  .00001665  00000-0  12266-3 0  9999,2 50161  53.2155 197.1005 0001014  79.5224 280.5882 15.08833168 80671,6917.901,95.438,540.468,539.065,0.0
50161.0,STARLINK-3304,PAYLOAD,2023-05-16 11:03:38,15.08826157,0.0001027,53.2161,195.0189,90.4432,269.6678,0.00022489,3.292e-05,0.0,0 STARLINK-3304,1 50161U 21125F   23136.46086037  .00003292  00000-0  22489-3 0  9997,2 50161  53.2161 195.0189 0001027  90.4432 269.6678 15.08826157 81228,6917.923,95.438,540.498,539.077,0.0
50161.0,STARLINK-3304,PAYLOAD,2023-05-16 20:35:56,15.08847311,9.64e-05,53.2158,193.234,90.2373,269.873,-7.6586e-05,-1.507e-05,0.0,0 STARLINK-3304,1 50161U 21125F   23136.85829280 -.00001507  00000-0 -76586-4 0  9992,2 50161  53.2158 193.2340 0000964  90.2373 269.8730 15.08847311 80803,6917.858,95.437,540.39,539.056,0.0
50161.0,STARLINK-3304,PAYLOAD,2023-05-17 20:26:44,15.08828361,0.0001026,53.2155,188.7735,92.8879,267.223,0.00017711,2.531e-05,0.0,0 STARLINK-3304,1 50161U 21125F   23137.85190339  .00002531  00000-0  17711-3 0  9999,2 50161  53.2155 188.7735 0001026  92.8879 267.2230 15.08828361 81437,6917.916,95.438,540.491,539.071,0.0
50161.0,STARLINK-3304,PAYLOAD,2023-05-18 02:48:16,15.08833894,0.0001036,53.2156,187.5835,92.0564,268.0547,5.7116e-05,6.21e-06,0.0,0 STARLINK-3304,1 50161U 21125F   23138.11686209  .00000621  00000-0  57116-4 0  9997,2 50161  53.2156 187.5835 0001036  92.0564 268.0547 15.08833894 80997,6917.899,95.438,540.481,539.047,0.0
50161.0,STARLINK-3304,PAYLOAD,2023-05-18 10:45:12,15.08833911,0.0001021,53.2158,186.0968,91.8204,268.2905,4.6633e-05,4.54e-06,0.0,0 STARLINK-3304,1 50161U 21125F   23138.44806287  .00000454  00000-0  46633-4 0  9999,2 50161  53.2158 186.0968 0001021  91.8204 268.2905 15.08833911 81522,6917.899,95.438,540.47,539.058,0.0
50161.0,STARLINK-3304,PAYLOAD,2023-05-18 15:31:21,15.08836786,0.0001063,53.2163,185.2044,89.755,270.3563,4.6834e-05,4.58e-06,0.0,0 STARLINK-3304,1 50161U 21125F   23138.64678159  .00000458  00000-0  46834-4 0  9993,2 50161  53.2163 185.2044 0001063  89.7550 270.3563 15.08836786 81550,6917.89,95.438,540.491,539.02,0.0
50161.0,STARLINK-3304,PAYLOAD,2023-05-19 09:00:36,15.08842268,0.0001078,53.2162,181.9337,89.3884,270.7232,5.057e-05,5.17e-06,0.0,0 STARLINK-3304,1 50161U 21125F   23139.37541835  .00000517  00000-0  50570-4 0  9992,2 50161  53.2162 181.9337 0001078  89.3884 270.7232 15.08842268 81187,6917.873,95.437,540.484,538.993,0.0
50161.0,STARLINK-3304,PAYLOAD,2023-05-19 20:08:18,15.0884229,0.000105,53.216,179.8522,88.361,271.7503,6.0237e-05,6.71e-06,0.0,0 STARLINK-3304,1 50161U 21125F   23139.83909735  .00000671  00000-0  60237-4 0  9992,2 50161  53.2160 179.8522 0001050  88.3610 271.7503 15.08842290 81731,6917.873,95.437,540.465,539.012,0.0
50161.0,STARLINK-3304,PAYLOAD,2023-05-20 12:02:08,15.08848754,9.58e-05,53.216,176.8776,94.6111,265.499,0.00015374,2.16e-05,0.0,0 STARLINK-3304,1 50161U 21125F   23140.50149114  .00002160  00000-0  15374-3 0  9991,2 50161  53.2160 176.8776 0000958  94.6111 265.4990 15.08848754 81350,6917.854,95.437,540.381,539.056,0.0
50161.0,STARLINK-3304,PAYLOAD,2023-05-20 19:59:04,15.08848,9.63e-05,53.216,175.3905,94.3387,265.7715,0.00013475,1.858e-05,0.0,0 STARLINK-3304,1 50161U 21125F   23140.83269089  .00001858  00000-0  13475-3 0  9994,2 50161  53.2160 175.3905 0000963  94.3387 265.7715 15.08848000 81886,6917.856,95.437,540.387,539.055,0.0
50161.0,STARLINK-3304,PAYLOAD,2023-05-21 07:06:46,15.08847838,0.0001042,53.2159,173.3099,90.8157,269.2954,9.7558e-05,1.266e-05,0.0,0 STARLINK-3304,1 50161U 21125F   23141.29637067  .00001266  00000-0  97558-4 0  9998,2 50161  53.2159 173.3099 0001042  90.8157 269.2954 15.08847838 81478,6917.856,95.437,540.442,539.001,0.0
50161.0,STARLINK-3304,PAYLOAD,2023-05-21 08:42:09,15.08847913,0.0001049,53.2158,173.0126,90.5769,269.5343,9.6928e-05,1.255e-05,0.0,0 STARLINK-3304,1 50161U 21125F   23141.36261030  .00001255  00000-0  96928-4 0  9997,2 50161  53.2158 173.0126 0001049  90.5769 269.5343 15.08847913 81961,6917.856,95.437,540.447,538.996,0.0
50161.0,STARLINK-3304,PAYLOAD,2023-05-22 02:11:24,15.0883719,0.0001139,53.2154,169.7417,87.3954,272.7169,-2.3681e-05,-6.65e-06,0.0,0 STARLINK-3304,1 50161U 21125F   23142.09125966 -.00000665  00000-0 -23681-4 0  9997,2 50161  53.2154 169.7417 0001139  87.3954 272.7169 15.08837190 81599,6917.889,95.438,540.542,538.966,0.0
50161.0,STARLINK-3304,PAYLOAD,2023-05-22 08:32:57,15.08835752,0.0001094,53.2154,168.5509,98.0679,262.0437,-4.7008e-05,-1.036e-05,0.0,0 STARLINK-3304,1 50161U 21125F   23142.35622110 -.00001036  00000-0 -47008-4 0  9991,2 50161  53.2154 168.5509 0001094  98.0679 262.0437 15.08835752 82112,6917.893,95.438,540.515,539.002,0.0
50161.0,STARLINK-3304,PAYLOAD,2023-05-23 06:48:21,15.0883715,9.03e-05,53.216,164.389,97.8106,262.2989,-1.3767e-06,-3.1e-06,0.0,0 STARLINK-3304,1 50161U 21125F   23143.28358094 -.00000310  00000-0 -13767-5 0  9991,2 50161  53.2160 164.3890 0000903  97.8106 262.2989 15.08837150 81775,6917.889,95.438,540.379,539.129,0.0
50161.0,STARLINK-3304,PAYLOAD,2023-05-23 17:56:03,15.08842634,8.95e-05,53.2159,162.3061,96.9568,263.1526,-1.8332e-05,-5.79e-06,0.0,0 STARLINK-3304,1 50161U 21125F   23143.74725824 -.00000579  00000-0 -18332-4 0  9990,2 50161  53.2159 162.3061 0000895  96.9568 263.1526 15.08842634 82325,6917.872,95.437,540.356,539.118,0.0
50161.0,STARLINK-3304,PAYLOAD,2023-05-24 09:49:54,15.08835861,9.09e-05,53.216,159.334,95.92,264.1896,0.00014311,1.99e-05,0.0,0 STARLINK-3304,1 50161U 21125F   23144.40966179  .00001990  00000-0  14311-3 0  9992,2 50161  53.2160 159.3340 0000909  95.9200 264.1896 15.08835861 81943,6917.893,95.438,540.387,539.129,0.0
50161.0,STARLINK-3304,PAYLOAD,2023-05-26 04:45:19,15.08839649,8.96e-05,53.2159,151.3057,86.7479,273.3615,3.8112e-05,3.19e-06,0.0,0 STARLINK-3304,1 50161U 21125F   23146.19814684  .00000319  00000-0  38112-4 0  9993,2 50161  53.2159 151.3057 0000896  86.7479 273.3615 15.08839649 82219,6917.881,95.438,540.366,539.127,0.0
50161.0,STARLINK-3304,PAYLOAD,2023-05-26 09:31:29,15.08840789,9.16e-05,53.2158,150.4127,85.4341,274.6756,4.8068e-05,4.77e-06,0.0,0 STARLINK-3304,1 50161U 21125F   23146.39686573  .00000477  00000-0  48068-4 0  9995,2 50161  53.2158 150.4127 0000916  85.4341 274.6756 15.08840789 82726,6917.878,95.438,540.377,539.109,0.0
50161.0,STARLINK-3304,PAYLOAD,2023-05-27 09:22:16,15.08841457,8.83e-05,53.2155,145.9521,87.6717,272.4376,9.1221e-05,1.164e-05,0.0,0 STARLINK-3304,1 50161U 21125F   23147.39046372  .00001164  00000-0  91221-4 0  9996,2 50161  53.2155 145.9521 0000883  87.6717 272.4376 15.08841457 82394,6917.876,95.437,540.352,539.13,0.0
50161.0,STARLINK-3304,PAYLOAD,2023-05-27 17:19:11,15.08840623,8.87e-05,53.2154,144.4652,86.4605,273.6489,7.3364e-05,8.8e-06,0.0,0 STARLINK-3304,1 50161U 21125F   23147.72166468  .00000880  00000-0  73364-4 0  9994,2 50161  53.2154 144.4652 0000887  86.4605 273.6489 15.08840623 82920,6917.878,95.438,540.357,539.13,0.0
50161.0,STARLINK-3304,PAYLOAD,2023-05-28 06:02:16,15.08842429,8.99e-05,53.2156,142.086,90.0928,270.0167,5.1714e-05,5.35e-06,0.0,0 STARLINK-3304,1 50161U 21125F   23148.25158389  .00000535  00000-0  51714-4 0  9998,2 50161  53.2156 142.0860 0000899  90.0928 270.0167 15.08842429 83009,6917.873,95.437,540.36,539.116,0.0
